1 48213C 21031D   21330.17112684  .00001994  00000+0  53851-2 0  3309
2 48213  87.8992 260.4604 0001562  69.3325  58.8225 13.14501243    12
1 48213C 21031D   21330.54757360 -.00000987  00000+0 -26652-2 0  3308
2 48213  87.8990 260.3856 0001550  69.4872  39.0782 13.14503259    11
1 48213C 21031D   21331.00880045 -.00003071  00000+0 -82943-2 0  3310
2 48213  87.8989 260.2939 0001544  69.7259  60.2174 13.14504908    18
1 48213C 21031D   21331.38316388 -.00001797  00000+0 -48529-2 0  3310
2 48213  87.8988 260.2194 0001538  70.1811  30.3163 13.14505182    14
1 48213C 21031D   21331.83183286 -.00001331  00000+0 -35946-2 0  3312
2 48213  87.8988 260.1302 0001538  70.2636 352.2184 13.14505043    15
1 48213C 21031D   21332.22494629  .00003114  00000+0  84089-2 0  3324
2 48213  87.8989 260.0519 0001531  70.2993  51.4210 13.14499768    18
1 48213C 21031D   21332.67083749  .00003200  00000+0  86422-2 0  3329
2 48213  87.8990 259.9632 0001524  70.1870   0.3815 13.14499477    19
1 48213C 21031D   21333.13206434  .00002781  00000+0  75116-2 0  3331
2 48213  87.8993 259.8714 0001520  70.1988  21.7483 13.14499704    19
1 48213C 21031D   21333.58351109  .00001985  00000+0  53604-2 0  3333
2 48213  87.8995 259.7816 0001512  70.2227 356.8474 13.14501045    15
1 48213C 21031D   21334.05162453  .00000153  00000+0  41425-3 0  3344
2 48213  87.8999 259.6884 0001510  70.1104  50.9085 13.14503498    18
1 48213C 21031D   21334.42807127 -.00001239  00000+0 -33464-2 0  3340
2 48213  87.9002 259.6135 0001507  70.3507  31.0763 13.14507049    17
1 48213C 21031D   21336.10058285  .00001896  00000+0  51212-2 0  3360
2 48213  87.9016 259.2807 0001485  70.1413  21.4749 13.14505435    17
1 48213C 21031D   21336.48397406 -.00001249  00000+0 -33733-2 0  3364
2 48213  87.9018 259.2045 0001479  70.2943  34.5800 13.14509379    19
1 48213C 21031D   21336.92917082 -.00003533  00000+0 -95419-2 0  3368
2 48213  87.9020 259.1159 0001472  70.6088 339.8360 13.14512342    10
1 48213C 21031D   21337.32095322 -.00000633  00000+0 -17097-2 0  3372
2 48213  87.9019 259.0381 0001465  70.8906  32.5019 13.14510743    18
1 48213C 21031D   21337.76406664  .00000269  00000+0  72573-3 0  3379
2 48213  87.9008 258.9501 0001461  70.8467 328.2663 13.14509709    16
1 48213C 21031D   21338.23843008  .00001539  00000+0  41564-2 0  3386
2 48213  87.8987 258.8558 0001442  71.2139  51.4188 13.14507202    15
1 48213C 21031D   21338.66142775  .00002364  00000+0  63834-2 0  3387
2 48213  87.8970 258.7717 0001430  71.3222 251.8935 13.14505110    16
1 48213C 21031D   21338.96599953 -.00003795  00000+0 -10249-1 0  3386
2 48213  87.8963 258.7110 0001430  71.6796 252.0151 13.14509820    19
1 48213C 21031D   21339.44597638 -.00006735  00000+0 -18190-1 0  3399
2 48213  87.8958 258.6155 0001417  72.2571   1.4998 13.14510658    10
1 48213C 21031D   21339.75650879 -.00005393  00000+0 -14565-1 0  3391
2 48213  87.8956 258.5536 0001415  72.9299  29.4972 13.14507762    16
1 48213C 21031D   21340.06628888 -.00000923  00000+0 -24931-2 0  3407
2 48213  87.8955 258.4920 0001400  73.2579  54.2867 13.14498225    12
1 48213C 21031D   21340.36565230 -.00002665  00000+0 -71988-2 0  3400
2 48213  87.8952 258.4323 0001396  74.1156  29.2636 13.14501152    11
1 48213C 21031D   21340.66362683  .00001993  00000+0  53815-2 0  3400
2 48213  87.8951 258.3730 0001396  74.1661 358.4862 13.14495456    19
1 48213C 21031D   21340.97896249 -.00003215  00000+0 -86830-2 0  3408
2 48213  87.8949 258.3102 0001389  74.4103  49.6190 13.14499110    19
1 48213C 21031D   21341.27838377  .00000070  00000+0  18857-3 0  3410
2 48213  87.8947 258.2506 0001390  74.9920  25.1460 13.14497632    14
1 48213C 21031D   21341.57566387  .00001289  00000+0  34819-2 0  3410
2 48213  87.8945 258.1914 0001383  74.9468 351.1794 13.14493953    17
1 48213C 21031D   21341.89377730 -.00003953  00000+0 -10677-1 0  3414
2 48213  87.8944 258.1280 0001384  75.3649  55.2702 13.14500162    11
1 48213C 21031D   21342.19591850  .00002744  00000+0  74114-2 0  3422
2 48213  87.8943 258.0679 0001388  75.5314  44.0805 13.14493613    18
1 48213C 21031D   21342.49805971 -.00000565  00000+0 -15262-2 0  3427
2 48213  87.8942 258.0077 0001381  75.5053  33.0801 13.14495601    15
1 48213C 21031D   21342.86692545 -.00003179  00000+0 -85870-2 0  3425
2 48213  87.8941 257.9342 0001385  75.9896 337.1374 13.14499782    17
1 48213C 21031D   21343.18642777  .00003407  00000+0  92013-2 0  3433
2 48213  87.8942 257.8705 0001386  75.9973  48.2161 13.14493265    11
1 48213C 21031D   21343.48718008 -.00000260  00000+0 -70329-3 0  3430
2 48213  87.8942 257.8106 0001380  75.9162  30.7015 13.14496080    12
1 48213C 21031D   21343.79140462 -.00000547  00000+0 -14782-2 0  3435
2 48213  87.8942 257.7499 0001385  76.3450  29.0951 13.14498965    10
1 48213C 21031D   21344.02340693  .00000227  00000+0  61200-3 0  3442
2 48213  87.8943 257.7037 0001380  75.9794  46.7184 13.14495946    10
1 48213C 21031D   21344.32352266 -.00000233  00000+0 -62908-3 0  3449
2 48213  87.8944 257.6439 0001382  76.4629  25.6250 13.14499274    19
1 48213C 21031D   21344.62149720  .00003661  00000+0  98891-2 0  3446
2 48213  87.8945 257.5845 0001380  76.1448 355.2162 13.14494571    13
1 48213C 21031D   21344.85488841 -.00002399  00000+0 -64795-2 0  3446
2 48213  87.8946 257.5379 0001378  76.4877  18.6904 13.14502029    14
1 48213C 21031D   21345.16536295  .00004059  00000+0  10962-1 0  3458
2 48213  87.8948 257.4760 0001380  76.3733  47.1978 13.14495676    19
1 48213C 21031D   21345.46611527 -.00000304  00000+0 -82230-3 0  3453
2 48213  87.8949 257.4161 0001373  76.3334  29.6441 13.14499789    13
1 48213C 21031D   21346.00234212 -.00000351  00000+0 -94700-3 0  3464
2 48213  87.8953 257.3092 0001369  76.3700  45.6940 13.14500304    10
1 48213C 21031D   21346.23087220  .00002399  00000+0  64785-2 0  3465
2 48213  87.8954 257.2636 0001371  76.8132  46.0824 13.14500185    14
1 48213C 21031D   21346.53023563  .00001422  00000+0  38417-2 0  3467
2 48213  87.8955 257.2040 0001366  76.5936  22.1463 13.14499485    11
1 48213C 21031D   21346.83446017 -.00002591  00000+0 -69963-2 0  3463
2 48213  87.8957 257.1433 0001365  77.0747  20.4918 13.14505681    15
1 48213C 21031D   21346.83446017 -.00002594  00000+0 -70067-2 0  3463
2 48213  87.8957 257.1433 0001365  77.0747  20.4918 13.14505681    15
1 48213C 21031D   21347.14493472  .00003335  00000+0  90074-2 0  3478
2 48213  87.8958 257.0814 0001362  77.0169  48.9471 13.14499075    11
1 48213C 21031D   21347.44505045 -.00001535  00000+0 -41444-2 0  3470
2 48213  87.8959 257.0216 0001356  77.2097  28.1528 13.14503559    19
1 48213C 21031D   21347.44505045 -.00001535  00000+0 -41447-2 0  3473
2 48213  87.8959 257.0216 0001356  77.2100  28.1524 13.14503560    12
1 48213C 21031D   21347.44505045 -.00001534  00000+0 -41440-2 0  3475
2 48213  87.8959 257.0216 0001356  77.2102  28.1523 13.14503560    13
1 48213C 21031D   21348.80558285 -.00003036  00000+0 -81992-2 0  3486
2 48213  87.8962 256.7504 0001348  78.6132 341.3994 13.14505935    12
1 48213C 21031D   21348.80558285 -.00003037  00000+0 -82018-2 0  3487
2 48213  87.8962 256.7504 0001348  78.6131 341.3995 13.14505936    13
1 48213C 21031D   21349.19939073  .00001443  00000+0  38973-2 0  3497
2 48213  87.8962 256.6720 0001343  79.0174  43.5168 13.14500652    12
1 48213C 21031D   21349.49875415 -.00000802  00000+0 -21655-2 0  3498
2 48213  87.8962 256.6123 0001336  79.1557  19.2224 13.14500578    17
1 48213C 21031D   21349.49875415 -.00000804  00000+0 -21720-2 0  3493
2 48213  87.8962 256.6123 0001336  79.1558  19.2223 13.14500579    18
1 48213C 21031D   21349.86970323 -.00004564  00000+0 -12326-1 0  3496
2 48213  87.8961 256.5384 0001338  79.8825 332.8976 13.14504810    12
1 48213C 21031D   21350.55726109  .00001033  00000+0  27902-2 0  3500
2 48213  87.8959 256.4014 0001332  80.5084 344.0842 13.14496884    16
1 48213C 21031D   21350.93509675 -.00003663  00000+0 -98933-2 0  3504
2 48213  87.8958 256.3261 0001331  81.1677 330.3958 13.14500940    17
1 48213C 21031D   21351.25043238  .00002473  00000+0  66803-2 0  3516
2 48213  87.8957 256.2632 0001333  81.8554  21.0862 13.14497200    12
1 48213C 21031D   21351.62968007  .00006201  00000+0  16748-1 0  3512
2 48213  87.8956 256.1876 0001335  82.5918  14.0022 13.14494668    19
1 48213C 21031D   21351.94084906 -.00003015  00000+0 -81437-2 0  3514
2 48213  87.8955 256.1257 0001332  83.1340  45.1299 13.14503934    12
1 48213C 21031D   21352.31590693 -.00001939  00000+0 -52365-2 0  3523
2 48213  87.8954 256.0509 0001335  83.8586  18.2427 13.14504455    15
1 48213C 21031D   21352.61880044  .00002583  00000+0  69757-2 0  3525
2 48213  87.8954 255.9906 0001338  83.8180  10.8250 13.14498980    14
1 48213C 21031D   21352.99941388 -.00000318  00000+0 -85919-3 0  3520
2 48213  87.8953 255.9147 0001336  84.0752  10.6826 13.14500526    13
1 48213C 21031D   21353.38211064 -.00001913  00000+0 -51674-2 0  3538
2 48213  87.8952 255.8385 0001341  84.4730  20.2488 13.14503441    11
1 48213C 21031D   21353.67198331  .00002478  00000+0  66911-2 0  3536
2 48213  87.8952 255.7807 0001347  84.3775 311.2999 13.14500272    12
1 48213C 21031D   21353.99565229  .00000198  00000+0  53482-3 0  3532
2 48213  87.8952 255.7163 0001346  84.5061  41.9688 13.14500684    15
1 48213C 21031D   21354.44779351 -.00000158  00000+0 -42668-3 0  3549
2 48213  87.8952 255.6262 0001348  84.7552  20.1244 13.14502148    17
1 48213C 21031D   21354.81799027 -.00002413  00000+0 -65174-2 0  3544
2 48213  87.8952 255.5525 0001356  85.1104 330.6146 13.14506548    13
1 48213C 21031D   21355.13685601  .00004044  00000+0  10921-1 0  3552
2 48213  87.8952 255.4889 0001358  85.0512  38.7580 13.14500230    19
1 48213C 21031D   21355.43760832 -.00000117  00000+0 -31485-3 0  3554
2 48213  87.8952 255.4291 0001355  85.0378  21.1830 13.14504073    16
